{
  "type": "FeatureCollection",
  "features": [
    {
      "type": "Feature",
      "properties": {
        "norad_id": 66849,
        "name": "STARLINK-36102",
        "group": "last-30-days",
        "lat": -36.70987069495379,
        "lon": -78.06453212582042,
        "alt_km": 401.6358866978244,
        "timestamp": "2025-12-24T20:42:19.746541+00:00",
        "meta_object_name": "STARLINK-36102",
        "meta_object_id": "2025-281B",
        "meta_epoch": "2025-12-24T06:00:02.000160",
        "meta_mean_motion": 15.58608838,
        "meta_eccentricity": 0.00013674,
        "meta_inclination": 42.9999,
        "meta_ra_of_asc_node": 52.4083,
        "meta_arg_of_pericenter": 275.935,
        "meta_mean_anomaly": 126.2825,
        "meta_ephemeris_type": 0,
        "meta_classification_type": "U",
        "meta_norad_cat_id": 66849,
        "meta_element_set_no": 999,
        "meta_rev_at_epoch": 323,
        "meta_bstar": -0.029322426,
        "meta_mean_motion_dot": -0.02061839,
        "meta_mean_motion_ddot": 0,
        "tle_line1": "1 66849U 25281B   25358.25002315 -.02061839  00000+0 -29322-1 0  9991",
        "tle_line2": "2 66849  42.9999  52.4083 0001367 275.9350 126.2825 15.58608838  3233"
      },
      "geometry": {
        "type": "Point",
        "coordinates": [
          -78.06453212582042,
          -36.70987069495379
        ]
      }
    },
    {
      "type": "Feature",
      "properties": {
        "norad_id": 66850,
        "name": "STARLINK-36105",
        "group": "last-30-days",
        "lat": -37.47766073788675,
        "lon": -75.85317498910157,
        "alt_km": 401.47002802831685,
        "timestamp": "2025-12-24T20:42:19.746551+00:00",
        "meta_object_name": "STARLINK-36105",
        "meta_object_id": "2025-281C",
        "meta_epoch": "2025-12-24T06:00:02.000160",
        "meta_mean_motion": 15.58598118,
        "meta_eccentricity": 0.00016223,
        "meta_inclination": 43.0004,
        "meta_ra_of_asc_node": 52.404,
        "meta_arg_of_pericenter": 277.1386,
        "meta_mean_anomaly": 126.9983,
        "meta_ephemeris_type": 0,
        "meta_classification_type": "U",
        "meta_norad_cat_id": 66850,
        "meta_element_set_no": 999,
        "meta_rev_at_epoch": 323,
        "meta_bstar": -0.028975044,
        "meta_mean_motion_dot": -0.0200167,
        "meta_mean_motion_ddot": 0,
        "tle_line1": "1 66850U 25281C   25358.25002315 -.02001670  00000+0 -28975-1 0  9993",
        "tle_line2": "2 66850  43.0004  52.4040 0001622 277.1386 126.9983 15.58598118  3235"
      },
      "geometry": {
        "type": "Point",
        "coordinates": [
          -75.85317498910157,
          -37.47766073788675
        ]
      }
    },
    {
      "type": "Feature",
      "properties": {
        "norad_id": 66851,
        "name": "STARLINK-36094",
        "group": "last-30-days",
        "lat": -38.19527671707933,
        "lon": -73.62109789907012,
        "alt_km": 401.7990998989744,
        "timestamp": "2025-12-24T20:42:19.746562+00:00",
        "meta_object_name": "STARLINK-36094",
        "meta_object_id": "2025-281D",
        "meta_epoch": "2025-12-24T06:00:02.000160",
        "meta_mean_motion": 15.58604932,
        "meta_eccentricity": 0.0001111,
        "meta_inclination": 42.9997,
        "meta_ra_of_asc_node": 52.3978,
        "meta_arg_of_pericenter": 277.0756,
        "meta_mean_anomaly": 128.976,
        "meta_ephemeris_type": 0,
        "meta_classification_type": "U",
        "meta_norad_cat_id": 66851,
        "meta_element_set_no": 999,
        "meta_rev_at_epoch": 323,
        "meta_bstar": -0.029207635,
        "meta_mean_motion_dot": -0.02015798,
        "meta_mean_motion_ddot": 0,
        "tle_line1": "1 66851U 25281D   25358.25002315 -.02015798  00000+0 -29208-1 0  9990",
        "tle_line2": "2 66851  42.9997  52.3978 0001111 277.0756 128.9760 15.58604932  3234"
      },
      "geometry": {
        "type": "Point",
        "coordinates": [
          -73.62109789907012,
          -38.19527671707933
        ]
      }
    },
    {
      "type": "Feature",
      "properties": {
        "norad_id": 66852,
        "name": "STARLINK-35992",
        "group": "last-30-days",
        "lat": -38.87301247742465,
        "lon": -71.3340720256255,
        "alt_km": 401.7328147186836,
        "timestamp": "2025-12-24T20:42:19.746576+00:00",
        "meta_object_name": "STARLINK-35992",
        "meta_object_id": "2025-281E",
        "meta_epoch": "2025-12-24T06:00:02.000160",
        "meta_mean_motion": 15.58605778,
        "meta_eccentricity": 0.00012493,
        "meta_inclination": 42.9998,
        "meta_ra_of_asc_node": 52.3939,
        "meta_arg_of_pericenter": 277.4977,
        "meta_mean_anomaly": 130.471,
        "meta_ephemeris_type": 0,
        "meta_classification_type": "U",
        "meta_norad_cat_id": 66852,
        "meta_element_set_no": 999,
        "meta_rev_at_epoch": 323,
        "meta_bstar": -0.029204403,
        "meta_mean_motion_dot": -0.02015759,
        "meta_mean_motion_ddot": 0,
        "tle_line1": "1 66852U 25281E   25358.25002315 -.02015759  00000+0 -29204-1 0  9994",
        "tle_line2": "2 66852  42.9998  52.3939 0001249 277.4977 130.4710 15.58605778  3236"
      },
      "geometry": {
        "type": "Point",
        "coordinates": [
          -71.3340720256255,
          -38.87301247742465
        ]
      }
    },
    {
      "type": "Feature",
      "properties": {
        "norad_id": 66853,
        "name": "STARLINK-35986",
        "group": "last-30-days",
        "lat": -39.50768484795302,
        "lon": -68.99589171667813,
        "alt_km": 401.7154681878774,
        "timestamp": "2025-12-24T20:42:19.746586+00:00",
        "meta_object_name": "STARLINK-35986",
        "meta_object_id": "2025-281F",
        "meta_epoch": "2025-12-24T06:00:02.000160",
        "meta_mean_motion": 15.58596728,
        "meta_eccentricity": 0.00012473,
        "meta_inclination": 43.0002,
        "meta_ra_of_asc_node": 52.3899,
        "meta_arg_of_pericenter": 278.7841,
        "meta_mean_anomaly": 131.1022,
        "meta_ephemeris_type": 0,
        "meta_classification_type": "U",
        "meta_norad_cat_id": 66853,
        "meta_element_set_no": 999,
        "meta_rev_at_epoch": 323,
        "meta_bstar": -0.028931164,
        "meta_mean_motion_dot": -0.01998651,
        "meta_mean_motion_ddot": 0,
        "tle_line1": "1 66853U 25281F   25358.25002315 -.01998651  00000+0 -28931-1 0  9991",
        "tle_line2": "2 66853  43.0002  52.3899 0001247 278.7841 131.1022 15.58596728  3230"
      },
      "geometry": {
        "type": "Point",
        "coordinates": [
          -68.99589171667813,
          -39.50768484795302
        ]
      }
    },
    {
      "type": "Feature",
      "properties": {
        "norad_id": 66854,
        "name": "STARLINK-36087",
        "group": "last-30-days",
        "lat": -40.08627877435091,
        "lon": -66.65087597539829,
        "alt_km": 401.8935379277864,
        "timestamp": "2025-12-24T20:42:19.746596+00:00",
        "meta_object_name": "STARLINK-36087",
        "meta_object_id": "2025-281G",
        "meta_epoch": "2025-12-24T06:00:02.000160",
        "meta_mean_motion": 15.58612401,
        "meta_eccentricity": 0.00011812,
        "meta_inclination": 42.9999,
        "meta_ra_of_asc_node": 52.3835,
        "meta_arg_of_pericenter": 283.1945,
        "meta_mean_anomaly": 128.6048,
        "meta_ephemeris_type": 0,
        "meta_classification_type": "U",
        "meta_norad_cat_id": 66854,
        "meta_element_set_no": 999,
        "meta_rev_at_epoch": 324,
        "meta_bstar": -0.029388526,
        "meta_mean_motion_dot": -0.02066117,
        "meta_mean_motion_ddot": 0,
        "tle_line1": "1 66854U 25281G   25358.25002315 -.02066117  00000+0 -29389-1 0  9994",
        "tle_line2": "2 66854  42.9999  52.3835 0001181 283.1945 128.6048 15.58612401  3243"
      },
      "geometry": {
        "type": "Point",
        "coordinates": [
          -66.65087597539829,
          -40.08627877435091
        ]
      }
    },
    {
      "type": "Feature",
      "properties": {
        "norad_id": 66855,
        "name": "STARLINK-36090",
        "group": "last-30-days",
        "lat": -40.62246404461627,
        "lon": -64.23757422972713,
        "alt_km": 401.7518136713288,
        "timestamp": "2025-12-24T20:42:19.746606+00:00",
        "meta_object_name": "STARLINK-36090",
        "meta_object_id": "2025-281H",
        "meta_epoch": "2025-12-24T06:00:02.000160",
        "meta_mean_motion": 15.58611403,
        "meta_eccentricity": 0.00012884,
        "meta_inclination": 42.9998,
        "meta_ra_of_asc_node": 52.3795,
        "meta_arg_of_pericenter": 278.7383,
        "meta_mean_anomaly": 134.9764,
        "meta_ephemeris_type": 0,
        "meta_classification_type": "U",
        "meta_norad_cat_id": 66855,
        "meta_element_set_no": 999,
        "meta_rev_at_epoch": 311,
        "meta_bstar": -0.029323005,
        "meta_mean_motion_dot": -0.02062004,
        "meta_mean_motion_ddot": 0,
        "tle_line1": "1 66855U 25281H   25358.25002315 -.02062004  00000+0 -29323-1 0  9994",
        "tle_line2": "2 66855  42.9998  52.3795 0001288 278.7383 134.9764 15.58611403  3114"
      },
      "geometry": {
        "type": "Point",
        "coordinates": [
          -64.23757422972713,
          -40.62246404461627
        ]
      }
    }
  ]
}